EUTELSAT 139 WEST A     
1 28187U 04008A   26013.53130972  .00000087  00000+0  00000+0 0  9993
2 28187   5.4330  73.8770 0019385 202.9205 248.4698  1.00554299 79801
EUTELSAT 174A           
1 28924U 05052A   26014.90803677  .00000024  00000+0  00000+0 0  9994
2 28924   3.8299  78.4577 0006252 219.0392 317.7932  1.00269480 50790
EUTELSAT 33F            
1 29270U 06032A   26014.95145702  .00000173  00000+0  00000+0 0  9996
2 29270   1.2660  84.0679 0003396 217.4946 188.4301  1.00272899 45771
EUTELSAT HOTBIRD 13C    
1 33459U 08065A   26014.93499027 -.00000267  00000+0  00000+0 0  9993
2 33459   2.5565  81.0557 0002996 222.2749  97.3458  1.00271635 45807
EUTELSAT 36B            
1 36101U 09065A   26014.95492371  .00000131  00000+0  00000+0 0  9997
2 36101   0.1056  66.7960 0005327 230.8358 211.0603  1.00274520 59171
EUTELSAT KA-SAT 9A      
1 37258U 10069A   26014.73272528  .00000080  00000+0  00000+0 0  9996
2 37258   0.0495 345.9774 0001749 188.0061 212.9534  1.00268672 42463
EUTELSAT 7 WEST A       
1 37816U 11051A   26014.94348365 -.00000041  00000+0  00000+0 0  9992
2 37816   0.0613   1.0795 0004082 237.3622 208.2915  1.00271789 52344
EUTELSAT 16A            
1 37836U 11057A   26014.94072563  .00000124  00000+0  00000+0 0  9995
2 37836   0.0544 350.5867 0005512 307.1963 171.2897  1.00275595  5798
